{
  "type": "FeatureCollection",
  "features": [
    {
      "type": "Feature",
      "properties": {
        "name": "Kaypian"
      },
      "geometry": {
        "type": "Polygon",
        "coordinates": [
          [
            [121.0505, 14.8320],
            [121.0542, 14.8345],
            [121.0588, 14.8332],
            [121.0635, 14.8305],
            [121.0682, 14.8260],
            [121.0710, 14.8215],
            [121.0702, 14.8160],
            [121.0665, 14.8122],
            [121.0610, 14.8105],
            [121.0560, 14.8118],
            [121.0515, 14.8152],
            [121.0478, 14.8205],
            [121.0465, 14.8258],
            [121.0482, 14.8295],
            [121.0505, 14.8320]
          ]
        ]
      }
    }
  ]
}
